[{"OBJECT_NAME":"OBJECT A","OBJECT_ID":"2023-189A","EPOCH":"2026-03-09T22:59:06.381600","MEAN_MOTION":15.32403275,"ECCENTRICITY":0.00094831,"INCLINATION":97.4458,"RA_OF_ASC_NODE":86.5997,"ARG_OF_PERICENTER":249.5377,"MEAN_ANOMALY":110.4847,"EPHEMERIS_TYPE":0,"CLASSIFICATION_TYPE":"U","NORAD_CAT_ID":58502,"ELEMENT_SET_NO":999,"REV_AT_EPOCH":12601,"BSTAR":0.00019874471,"MEAN_MOTION_DOT":6.146e-5,"MEAN_MOTION_DDOT":0},{"OBJECT_NAME":"STARLINK-33796","OBJECT_ID":"2025-071Y","EPOCH":"2026-03-09T10:28:32.392128","MEAN_MOTION":15.30196497,"ECCENTRICITY":0.00014628,"INCLINATION":53.1582,"RA_OF_ASC_NODE":140.8843,"ARG_OF_PERICENTER":84.6787,"MEAN_ANOMALY":275.4381,"EPHEMERIS_TYPE":0,"CLASSIFICATION_TYPE":"U","NORAD_CAT_ID":63515,"ELEMENT_SET_NO":999,"REV_AT_EPOCH":5273,"BSTAR":0.0018412911,"MEAN_MOTION_DOT":0.0005457,"MEAN_MOTION_DDOT":0}]
